#cP2021  8 27  0  0  0.00000000      96 ORBIT IGb14 HLM  IGS
## 2172 432000.00000000   900.00000000 59453 0.0000000000000
+   31   G01G02G03G04G05G06G07G08G09G10G12G13G14G15G16G17G18
+        G19G20G21G22G23G24G25G26G27G28G29G30G31G32  0  0  0
+          0  0  0  0  0  0  0  0  0  0  0  0  0  0  0  0  0
+          0  0  0  0  0  0  0  0  0  0  0  0  0  0  0  0  0
+          0  0  0  0  0  0  0  0  0  0  0  0  0  0  0  0  0
++         2  2  2  2  1  2  1  2  2  1  2  2  2  2  2  2  2
++         2  1  2  1  2  1  1  1  2  2  2  1  2  2  0  0  0
++         0  0  0  0  0  0  0  0  0  0  0  0  0  0  0  0  0
++         0  0  0  0  0  0  0  0  0  0  0  0  0  0  0  0  0
++         0  0  0  0  0  0  0  0  0  0  0  0  0  0  0  0  0
%c G  cc GPS ccc cccc cccc cccc cccc ccccc ccccc ccccc ccccc
%c cc cc ccc ccc cccc cccc cccc cccc ccccc ccccc ccccc ccccc
%f  1.2500000  1.025000000  0.00000000000  0.000000000000000
%f  0.0000000  0.000000000  0.00000000000  0.000000000000000
%i    0    0    0    0      0      0      0      0         0
%i    0    0    0    0      0      0      0      0         0
/* FINAL ORBIT COMBINATION FROM WEIGHTED AVERAGE OF:        
/* cod emr esa gfz grg jpl mit ngs sio                      
/* REFERENCED TO IGS TIME (IGST) AND TO WEIGHTED MEAN POLE: 
/* PCV:IGS14_2163 OL/AL:FES2004  NONE     Y  ORB:CMB CLK:CMB
*  2021  8 27 22 30  0.00000000
PG01 -13307.670825   8840.969453  20873.727427    584.876999  5  2  4  68       
PG02  13490.109599  15854.899432 -15802.520891   -628.932635  4  5  3  68       
PG03 -23255.917020  11600.452847   5103.674090   -269.095099  5  5  4  88       
PG04 -19969.292563   3137.003864 -17258.041354   -204.190314  8  4  8  83       
PG05  21387.845376  -1861.396445 -15906.615877    -52.504011  4  5  3  72       
PG06   6487.596107  24720.351623  -7059.658712     63.560076  6  5  6  76       
PG07  -6937.951515  22299.656488 -11804.175466    233.788509  7  4  5  88       
PG08 -24857.470873  -5065.293631   8372.278395    -34.250410  7  3  6  81       
PG09  -9740.370865  12298.741639 -21500.097424   -359.837593  6  5  6  94       
PG10   3545.547378 -18212.819030  19012.452766   -191.239707  5  4  6 110       
PG12  23991.314840  -9788.671684   5256.457495    -89.013184  5  3    101       
PG13  23033.238745  13135.920657   2440.525950    177.297047  9  5  7  64       
PG14  -4007.988157  18197.284453  18905.226383     14.178810  3  5  5  76       
PG15  25268.849130   2323.637069   8029.909827   -125.312333  6  4  4  59       
PG16 -18510.918127  -4489.214298 -18945.826608   -380.829408  7  4  4  77       
PG17   4182.823309  17575.825916  19897.564086    495.919670  5  3  6  61       
PG18   5825.997775 -23728.989720 -10317.389917    328.623088  5  7  4  64       
PG19  13138.114632  18703.168006  13384.186716     45.255381  3  5  3  58       
PG20  13865.130079   8209.370736 -21111.367417    519.432485  7  4  3  79       
PG21 -15754.428779   -192.412563  22110.784116    139.597743  4  4  7  72       
PG22 -22398.674739   6814.566470  12525.076270   -527.645640     5  5  72       
PG23  14383.555848 -19523.258261  10731.570169     65.131886  5  3  5 112       
PG24  15207.065646  -3908.183766  21146.492119    220.260041  4  3  2  79       
PG25  19696.301399 -17135.122202  -4280.570565    198.464093  4  3  3  87       
PG26  -8733.260626 -13038.781085 -21477.571722    127.591024  7  6  5  87       
PG27 -23643.275123 -12474.795687  -1449.304793   -184.567852  8  8  7  68       
PG28   2156.350643  15821.429418  21802.768675    512.019819  4  4  4  91       
PG29  12613.682205  -9258.628441 -21517.343682   -402.811341  6  5  4  95       
PG30    724.458205  26403.267115   -861.022832   -466.800787  3  4  5  86       
PG31  -7627.737542 -23521.626125  -9123.721411   -136.613813  6  4  6 106       
PG32  -8579.152091 -17924.654050  17822.356817      4.450826  7  5  5  85       
*  2021  8 27 22 45  0.00000000
PG01 -13609.580637   6371.307881  21587.553989    584.866982  5  2  3  79       
PG02  13617.769011  17657.684298 -13723.163715   -628.934647  5  5  3  65       
PG03 -22780.207021  10971.901205   7854.790761   -269.106801  5  4  5  76       
PG04 -21577.168751   2176.711076 -15373.719014   -204.190491  9  4  8  91       
PG05  20000.622929   -567.462679 -17711.143384    -52.505301  5  5  3  70       
PG06   6371.051745  25389.543003  -4250.888679     63.566134  6  4  6  72       
PG07  -7357.780353  20779.365872 -14083.185254    233.795182  6  4  5  88       
PG08 -25514.085191  -5562.006019   5673.713749    -34.251595  7  4  7  74       
PG09 -11945.113979  11311.089601 -20923.155799   -359.838384  6  5  6  96       
PG10   5295.579639 -19326.077281  17405.354914   -191.246666  5  4  6  99       
PG12  23441.071126  -9177.966318   8006.320241    -89.018346  5  3     96       
PG13  23028.654261  13393.270660   -419.162146    177.301980 10  5  7  48       
PG14  -5820.624919  19224.280258  17349.503896     14.171229  3  5  5  64       
PG15  25952.777467   2853.527105   5399.458398   -125.309916  6  4  4  62       
PG16 -16681.357935  -5675.109556 -20257.614927   -380.835052  7  4  4  55       
PG17   2151.052542  16603.418268  21048.628535    495.925157  5  4  6  51       
PG18   6142.013752 -22431.174042 -12759.877799    328.619731  5  7  4  89       
PG19  11599.586082  17988.632631  15550.798361     45.259806  2  5  3  54       
PG20  12163.102993   9954.865503 -21431.369398    519.432407  7  4  3  63       
PG21 -16170.385926  -2510.912335  21697.440643    139.599621  4  4  7  70       
PG22 -21424.672412   5588.182778  14697.750872   -527.637315     5  5  79       
PG23  15379.294185 -20008.341150   8146.675495     65.127554  5  4  5 103       
PG24  15667.021095  -1466.625135  21157.385796    220.269129  4  3  2  72       
PG25  20102.202420 -17090.998915  -1436.155265    198.469860  4  3  3  98       
PG26  -6806.979300 -14534.237163 -21187.085677    127.594945  7  6  5  86       
PG27 -23290.915076 -12518.986704  -4287.851051   -184.572798  8  8  7  70       
PG28    130.770579  16973.650032  21025.020820    512.013484  4  4  4  93       
PG29  14702.702213  -8084.057746 -20650.883435   -402.816727  6  5  5  98       
PG30    361.144645  26163.727413  -3665.268515   -466.804458  4  5  5  74       
PG31  -7417.217930 -24433.929699  -6444.347683   -136.615570  7  3  6 111       
PG32  -6604.063427 -17205.802730  19303.988601      4.448071  7  6  5  83       
*  2021  8 27 23  0  0.00000000
PG01 -14055.676477   3865.188590  21918.958578    584.856909  5  2  3  39       
PG02  13778.943428  19199.941983 -11397.278105   -628.936578  5  5  3  64       
PG03 -22103.270411  10123.941717  10469.432306   -269.118524  5  4  5  78       
PG04 -23021.938108   1389.000761 -13225.506359   -204.190623  9  4  8  96       
PG05  18543.869427    920.548014 -19216.357866    -52.506350  5  5  3  63       
PG06   6238.949523  25744.771121  -1368.612361     63.572212  6  4  6  83       
PG07  -7891.034846  19036.353741 -16108.512714    233.802281  6  4  6 100       
PG08 -25904.896134  -5919.698320   2879.254534    -34.252986  8  4  7  91       
PG09 -14117.187789  10466.108843 -19988.437696   -359.839118  7  5  6 102       
PG10   6832.874860 -20404.872141  15498.141603   -191.253647  5  4  6  98       
PG12  22675.038786  -8359.500127  10616.106782    -89.023091  4  3     87       
PG13  22753.782224  13497.964466  -3271.716441    177.306397  9  5  8  58       
PG14  -7424.428734  20226.603713  15494.600334     14.163621  3  5  5  61       
PG15  26368.717368   3274.822993   2677.088454   -125.307467  7  4  4  81       
PG16 -14812.565347  -7033.813709 -21231.897993   -380.840737  7  4  4  75       
PG17    -30.208324  15703.819986  21850.840133    495.930350  5  4  6  64       
PG18   6564.785680 -20890.463902 -14981.956628    328.616307  4  7  5  90       
PG19   9813.694664  17256.398665  17446.638553     45.264441  3  5  2  81       
PG20  10539.616699  11790.595100 -21383.311136    519.432046  7  4  4  75       
PG21 -16694.577310  -4738.059577  20935.514346    139.601996  5  3  8  79       
PG22 -20349.118583   4154.996218  16617.942379   -527.629014     5  4  84       
PG23  16120.766923 -20347.261311   5420.903413     65.123101  5  4  4 108       
PG24  16236.300720    926.839752  20796.207131    220.278214  4  4  2  84       
PG25  20260.988899 -16858.456922   1433.331236    198.475628  4  3  3  94       
PG26  -4993.402976 -16088.157742 -20532.834114    127.598844  7  6  5  98       
PG27 -22647.330939 -12472.203642  -7054.467887   -184.577787  8  8  7  70       
PG28  -1741.540337  18177.351111  19903.670525    512.007458  4  4  4  91       
PG29  16746.395171  -7077.353758 -19430.984520   -402.821919  7  6  6  91       
PG30    -57.743444  25630.172248  -6405.428803   -466.808100  4  6  5  95       
PG31  -7207.768100 -25047.046830  -3651.221968   -136.617442  7  2  7 118       
PG32  -4454.236709 -16539.902202  20458.209103      4.445334  6  6  5  80       
EOF
